0 COSMOS 339
1 04386U 70036D   13281.18810427 -.00000022  00000-0 -40542-4 0  9572
2 04386 074.0301 201.2165 0015976 302.3449 127.1282 12.51801964985886
0 COSMOS 339
1 04386U 70036D   13283.51466708 -.00000045  00000-0 -18739-3 0  9588
2 04386 074.0301 198.1147 0015974 299.0419 171.5458 12.51801896986172
0 COSMOS 339
1 04386U 70036D   13285.81988015 -.00000000  00000-0  10204-3 0  9593
2 04386 074.0302 195.0413 0015992 295.6366 119.8876 12.51801741986468
0 COSMOS 339
1 04386U 70036D   13288.16254005  .00000027  00000-0  27741-3 0  9603
2 04386 074.0298 191.9182 0016008 292.2362 236.9205 12.51801454986758
0 COSMOS 339
1 04386U 70036D   13290.45201036  .00000010  00000-0  16499-3 0  9615
2 04386 074.0293 188.8661 0016001 288.9240 114.2442 12.51801635987045
0 COSMOS 339
1 04386U 70036D   13292.46466796 -.00000008  00000-0  52886-4 0  9624
2 04386 074.0289 186.1829 0015977 286.0435 184.1021 12.51801959987298
0 COSMOS 339
1 04386U 70036D   13294.85268622 -.00000026  00000-0 -60719-4 0  9633
2 04386 074.0287 182.9990 0015964 282.6127 145.5044 12.51802267987597
